NORAD_CAT_ID,OBJECT_NAME,OBJECT_TYPE,EPOCH,MEAN_MOTION,ECCENTRICITY,INCLINATION,RA_OF_ASC_NODE,ARG_OF_PERICENTER,MEAN_ANOMALY,BSTAR,MEAN_MOTION_DOT,MEAN_MOTION_DDOT,TLE_LINE0,TLE_LINE1,TLE_LINE2,SEMIMAJOR_AXIS,PERIOD,APOGEE,PERIGEE,DECAYED
49177.0,STARLINK-3103,PAYLOAD,2022-03-15 02:00:01,15.69713041,0.0003505,70.0001,335.3130000000001,258.6662,332.6318,2.2176e-05,2.432e-05,0.0,0 STARLINK-3103,1 49177U 21082AZ  22074.08334491  .00002432  00000-0  22176-4 0  9991,2 49177  70.0001 335.3130 0003505 258.6662 332.6318 15.69713041  3662,6737.855,91.737,362.082,357.358,0.0
49177.0,STARLINK-3103,PAYLOAD,2022-03-15 22:00:00,15.69686378,0.0003378,70.0,332.9714,254.8005,4.0575,0.00035043,0.0004172,0.0,0 STARLINK-3103,1 49177U 21082AZ  22074.91667824  .00041720  00000-0  35043-3 0  9991,2 49177  70.0000 332.9714 0003378 254.8005   4.0575 15.69686378 29989,6737.931,91.738,362.072,357.52,0.0
49177.0,STARLINK-3103,PAYLOAD,2022-03-16 14:00:01,15.6970999,0.0003406,69.9992,331.0974,250.5243,174.5228,0.00092451,0.00111449,0.0,0 STARLINK-3103,1 49177U 21082AZ  22075.58334491  .00111449  00000-0  92451-3 0  9998,2 49177  69.9992 331.0974 0003406 250.5243 174.5228 15.69709990  3686,6737.864000000001,91.737,362.024,357.434,0.0
49177.0,STARLINK-3103,PAYLOAD,2022-03-16 20:00:01,15.69792683,0.0003415,69.9996,330.3946,252.1932,145.1796,-0.00013372,-0.00016173,0.0,0 STARLINK-3103,1 49177U 21082AZ  22075.83334491 -.00016173  00000-0 -13372-3 0  9991,2 49177  69.9996 330.3946 0003415 252.1932 145.1796 15.69792683  3678,6737.627,91.732,361.793,357.191,0.0
49177.0,STARLINK-3103,PAYLOAD,2022-03-17 06:00:00,15.69841397,0.0003345,69.9991,329.2233,256.3971,334.9313,-0.00073176,-0.00086998,0.0,0 STARLINK-3103,1 49177U 21082AZ  22076.25001157 -.00086998  00000-0 -73176-3 0  9998,2 49177  69.9991 329.2233 0003345 256.3971 334.9313 15.69841397 30197,6737.488,91.729,361.606,357.099,0.0
49177.0,STARLINK-3103,PAYLOAD,2022-03-17 14:00:01,15.69724673,0.0003573,69.9992,328.2866,251.334,63.2128,0.00094696,0.00114272,0.0,0 STARLINK-3103,1 49177U 21082AZ  22076.58334491  .00114272  00000-0  94696-3 0  9999,2 49177  69.9992 328.2866 0003573 251.3340  63.2128 15.69724673  3695,6737.821999999999,91.736,362.094,357.279,0.0
49177.0,STARLINK-3103,PAYLOAD,2022-03-17 22:00:00,15.69803701,0.0003598,69.9993,327.3498,254.5347,143.1597,2.5508e-05,2.841e-05,0.0,0 STARLINK-3103,1 49177U 21082AZ  22076.91667824  .00002841  00000-0  25508-4 0  9990,2 49177  69.9993 327.3498 0003598 254.5347 143.1597 15.69803701  3694,6737.596,91.731,361.885,357.036,0.0
49177.0,STARLINK-3103,PAYLOAD,2022-03-18 08:00:01,15.69821078,0.0003658,69.9984,326.1784,255.9249,335.745,-0.00083907,-0.00099501,0.0,0 STARLINK-3103,1 49177U 21082AZ  22077.33334491 -.00099501  00000-0 -83907-3 0  9995,2 49177  69.9984 326.1784 0003658 255.9249 335.7450 15.69821078 30360,6737.545999999999,91.73,361.876,356.946,0.0
49177.0,STARLINK-3103,PAYLOAD,2022-03-18 14:00:01,15.69764108,0.0003816,69.9989,325.4754,250.9097,313.1453,-4.6492e-05,-5.763e-05,0.0,0 STARLINK-3103,1 49177U 21082AZ  22077.58334491 -.00005763  00000-0 -46492-4 0  9998,2 49177  69.9989 325.4754 0003816 250.9097 313.1453 15.69764108  3707,6737.709,91.734,362.145,357.00300000000016,0.0
49177.0,STARLINK-3103,PAYLOAD,2022-03-18 22:00:00,15.69727058,0.0003589,69.9999,324.5384,253.9466,33.2541,0.00012833,0.00015121,0.0,0 STARLINK-3103,1 49177U 21082AZ  22077.91667824  .00015121  00000-0  12833-3 0  9992,2 49177  69.9999 324.5384 0003589 253.9466  33.2541 15.69727058 30450,6737.815,91.736,362.098,357.26199999999994,0.0
49177.0,STARLINK-3103,PAYLOAD,2022-03-19 14:00:01,15.69764195,0.0003683,70.0007,322.6646,250.5076,202.941,-0.00010352,-0.0001256,0.0,0 STARLINK-3103,1 49177U 21082AZ  22078.58334491 -.00012560  00000-0 -10352-3 0  9997,2 49177  70.0007 322.6646 0003683 250.5076 202.9410 15.69764195  3686,6737.709,91.734,362.055,357.092,0.0
49177.0,STARLINK-3103,PAYLOAD,2022-03-19 22:00:01,15.6973003,0.0003838,70.0007,321.7276,255.0676,281.6049,0.00013043,0.00015375,0.0,0 STARLINK-3103,1 49177U 21082AZ  22078.91668981  .00015375  00000-0  13043-3 0  9993,2 49177  70.0007 321.7276 0003838 255.0676 281.6049 15.69730030 30619,6737.806,91.736,362.257,357.085,0.0
49177.0,STARLINK-3103,PAYLOAD,2022-03-20 14:00:01,15.69757583,0.0003823,69.9999,319.8535,249.5213,93.3455,-7.6016e-05,-9.281e-05,0.0,0 STARLINK-3103,1 49177U 21082AZ  22079.58334491 -.00009281  00000-0 -76016-4 0  9994,2 49177  69.9999 319.8535 0003823 249.5213  93.3455 15.69757583  3689,6737.728,91.734,362.168,357.017,0.0
49177.0,STARLINK-3103,PAYLOAD,2022-03-20 22:00:01,15.69735622,0.0003612,70.0,318.9164,252.9229,173.1496,0.00017914,0.00021216,0.0,0 STARLINK-3103,1 49177U 21082AZ  22079.91668981  .00021216  00000-0  17914-3 0  9996,2 49177  70.0000 318.9164 0003612 252.9229 173.1496 15.69735622  3709,6737.79,91.735,362.089,357.222,0.0
49177.0,STARLINK-3103,PAYLOAD,2022-03-21 06:00:00,15.69794567,0.0003513,69.9998,317.9795,254.1154,255.0073,-0.00028657,-0.00034347,0.0,0 STARLINK-3103,1 49177U 21082AZ  22080.25001157 -.00034347  00000-0 -28657-3 0  9998,2 49177  69.9998 317.9795 0003513 254.1154 255.0073 15.69794567 30829,6737.621999999999,91.732,361.854,357.12,0.0
49177.0,STARLINK-3103,PAYLOAD,2022-03-21 14:00:01,15.69769001,0.000371,70.0,317.0426,248.5941,343.6902,-0.00048517,-0.00057785,0.0,0 STARLINK-3103,1 49177U 21082AZ  22080.58334491 -.00057785  00000-0 -48517-3 0  9992,2 49177  70.0000 317.0426 0003710 248.5941 343.6902 15.69769001  3671,6737.695,91.733,362.06,357.06,0.0
49177.0,STARLINK-3103,PAYLOAD,2022-03-21 22:00:00,15.6969199,0.0003601,70.0002,316.1055,253.1133,62.3022,5.1733e-05,5.954e-05,0.0,0 STARLINK-3103,1 49177U 21082AZ  22080.91667824  .00005954  00000-0  51733-4 0  9992,2 49177  70.0002 316.1055 0003601 253.1133  62.3022 15.69691990 30922,6737.915,91.738,362.207,357.35400000000016,0.0
49177.0,STARLINK-3103,PAYLOAD,2022-03-22 14:00:01,15.69701214,0.0003745,69.9999,314.2314,247.6094,233.9401,0.0006404,0.00076791,0.0,0 STARLINK-3103,1 49177U 21082AZ  22081.58334491  .00076791  00000-0  64040-3 0  9998,2 49177  69.9999 314.2314 0003745 247.6094 233.9401 15.69701214  3708,6737.889,91.737,362.277,357.231,0.0
49177.0,STARLINK-3103,PAYLOAD,2022-03-22 20:00:01,15.69752088,0.000371,70.0,313.5286,251.1225,202.7468,-0.00010543,-0.00012781,0.0,0 STARLINK-3103,1 49177U 21082AZ  22081.83334491 -.00012781  00000-0 -10543-3 0  9996,2 49177  70.0000 313.5286 0003710 251.1225 202.7468 15.69752088 31075,6737.743,91.734,362.108,357.1090000000001,0.0
49177.0,STARLINK-3103,PAYLOAD,2022-03-22 22:00:01,15.69729822,0.0003619,69.9999,313.2943,252.9835,311.7395,0.00030532,0.00036366,0.0,0 STARLINK-3103,1 49177U 21082AZ  22081.91668981  .00036366  00000-0  30532-3 0  9992,2 49177  69.9999 313.2943 0003619 252.9835 311.7395 15.69729822  3697,6737.807,91.736,362.11,357.2340000000001,0.0
49177.0,STARLINK-3103,PAYLOAD,2022-03-23 08:00:01,15.697847,0.0003632,69.9999,312.1228,251.3029,147.2724,-8.431e-05,-0.0001028,0.0,0 STARLINK-3103,1 49177U 21082AZ  22082.33334491 -.00010280  00000-0 -84310-4 0  9998,2 49177  69.9999 312.1228 0003632 251.3029 147.2724 15.69784700 31150,6737.65,91.732,361.962,357.0680000000001,0.0
49177.0,STARLINK-3103,PAYLOAD,2022-03-23 14:00:01,15.69793191,0.0003805,70.0002,311.4204,248.4337,122.5134,-0.00023606,-0.00028351,0.0,0 STARLINK-3103,1 49177U 21082AZ  22082.58334491 -.00028351  00000-0 -23606-3 0  9993,2 49177  70.0002 311.4204 0003805 248.4337 122.5134 15.69793191  3711,6737.626,91.732,362.054,356.927,0.0
49177.0,STARLINK-3103,PAYLOAD,2022-03-23 22:00:00,15.69762844,0.0003813,70.0005,310.4832,253.5407,200.5807,1.2456e-05,1.276e-05,0.0,0 STARLINK-3103,1 49177U 21082AZ  22082.91667824  .00001276  00000-0  12456-4 0  9996,2 49177  70.0005 310.4832 0003813 253.5407 200.5807 15.69762844  3696,6737.7130000000025,91.734,362.147,357.0080000000001,0.0
49177.0,STARLINK-3103,PAYLOAD,2022-03-24 14:00:01,15.69742786,0.0003869,70.0002,308.6090000000001,247.3767,13.0231,0.00038101,0.0004551,0.0,0 STARLINK-3103,1 49177U 21082AZ  22083.58334491  .00045510  00000-0  38101-3 0  9994,2 49177  70.0002 308.6090 0003869 247.3767  13.0231 15.69742786  3689,6737.77,91.735,362.242,357.028,0.0
49177.0,STARLINK-3103,PAYLOAD,2022-03-24 22:00:00,15.69739405,0.0003819,70.0001,307.6721,252.969,90.5814,-0.00010052,-0.00012191,0.0,0 STARLINK-3103,1 49177U 21082AZ  22083.91667824 -.00012191  00000-0 -10052-3 0  9996,2 49177  70.0001 307.6721 0003819 252.9690  90.5814 15.69739405  3704,6737.78,91.735,362.218,357.071,0.0
49177.0,STARLINK-3103,PAYLOAD,2022-03-25 00:00:02,15.69705146,0.0003821,70.0002,307.4379,254.3914,200.0131,0.00051314,0.00061387,0.0,0 STARLINK-3103,1 49177U 21082AZ  22084.00002315  .00061387  00000-0  51314-3 0  9990,2 49177  70.0002 307.4379 0003821 254.3914 200.0131 15.69705146 31414,6737.878000000002,91.737,362.317,357.168,0.0
49177.0,STARLINK-3103,PAYLOAD,2022-03-25 14:00:01,15.69750402,0.0003826,70.0005,305.7981,247.4123,262.3618,-0.00019487,-0.00023414,0.0,0 STARLINK-3103,1 49177U 21082AZ  22084.58334491 -.00023414  00000-0 -19487-3 0  9992,2 49177  70.0005 305.7981 0003826 247.4123 262.3618 15.69750402 31503,6737.748000000001,91.734,362.191,357.035,0.0
49177.0,STARLINK-3103,PAYLOAD,2022-03-25 22:00:01,15.69711015,0.0003658,70.0006,304.8611,252.5204,340.4444,0.00040937,0.00048867,0.0,0 STARLINK-3103,1 49177U 21082AZ  22084.91668981  .00048867  00000-0  40937-3 0  9994,2 49177  70.0006 304.8611 0003658 252.5204 340.4444 15.69711015  3695,6737.861,91.737,362.191,357.261,0.0
49177.0,STARLINK-3103,PAYLOAD,2022-03-26 06:00:00,15.69779145,0.0003722,70.0001,303.9242,251.3549,64.6536,-0.00022237,-0.00026708,0.0,0 STARLINK-3103,1 49177U 21082AZ  22085.25001157 -.00026708  00000-0 -22237-3 0  9993,2 49177  70.0001 303.9242 0003722 251.3549  64.6536 15.69779145 31608,6737.666,91.733,362.039,357.023,0.0
